{
    "links": {
        "self": "http://www.neowsapp.com/rest/v1/neo/3837560?api_key=iIulBulltgU6a56xZRHN4H3l9WmuAYTsLGpBGhQ2"
    },
    "id": "3837560",
    "neo_reference_id": "3837560",
    "name": "(2019 AP)",
    "designation": "2019 AP",
    "nasa_jpl_url": "http://ssd.jpl.nasa.gov/sbdb.cgi?sstr=3837560",
    "absolute_magnitude_h": 25.9,
    "estimated_diameter": {
        "kilometers": {
            "estimated_diameter_min": 0.0175612318,
            "estimated_diameter_max": 0.0392681082
        },
        "meters": {
            "estimated_diameter_min": 17.561231848,
            "estimated_diameter_max": 39.2681081809
        },
        "miles": {
            "estimated_diameter_min": 0.0109120402,
            "estimated_diameter_max": 0.0244000636
        },
        "feet": {
            "estimated_diameter_min": 57.6155918963,
            "estimated_diameter_max": 128.8323800441
        }
    },
    "is_potentially_hazardous_asteroid": false,
    "close_approach_data": [
        {
            "close_approach_date": "2018-12-23",
            "close_approach_date_full": "2018-Dec-23 15:27",
            "epoch_date_close_approach": 1545578820000,
            "relative_velocity": {
                "kilometers_per_second": "7.7570693133",
                "kilometers_per_hour": "27925.4495278545",
                "miles_per_hour": "17351.788346905"
            },
            "miss_distance": {
                "astronomical": "0.0495634323",
                "lunar": "19.2801751647",
                "kilometers": "7414583.901969201",
                "miles": "4607208.7975729338"
            },
            "orbiting_body": "Earth"
        }
    ],
    "orbital_data": {
        "orbit_id": "2",
        "orbit_determination_date": "2019-01-07 06:54:12",
        "first_observation_date": "2019-01-02",
        "last_observation_date": "2019-01-07",
        "data_arc_in_days": 5,
        "observations_used": 13,
        "orbit_uncertainty": "8",
        "minimum_orbit_intersection": ".0299771",
        "jupiter_tisserand_invariant": "3.673",
        "epoch_osculation": "2458486.5",
        "eccentricity": ".4939860533755944",
        "semi_major_axis": "1.999707236100775",
        "inclination": "6.599683312404966",
        "ascending_node_longitude": "265.872559880472",
        "orbital_period": "1032.875685687158",
        "perihelion_distance": "1.011879750632735",
        "perihelion_argument": "170.8503473511227",
        "aphelion_distance": "2.987534721568815",
        "perihelion_time": "2458465.144911405799",
        "mean_anomaly": "7.443133767639954",
        "mean_motion": ".348541460495797",
        "equinox": "J2000",
        "orbit_class": {
            "orbit_class_type": "APO",
            "orbit_class_description": "Near-Earth asteroid orbits which cross the Earth’s orbit similar to that of 1862 Apollo",
            "orbit_class_range": "a (semi-major axis) > 1.0 AU; q (perihelion) < 1.017 AU"
        }
    },
    "is_sentry_object": false
}